{
  "norad_id": 55131,
  "name": "SHIJIAN-23 (SJ-23)",
  "history": [
    {
      "epoch": "2026-03-28T18:34:53.945472",
      "apogee_km": 35753.1000242719,
      "perigee_km": 35704.28136824086,
      "latitude_deg": 2.4543744983504365,
      "longitude_deg": 127.42660608002916,
      "semi_major_axis_km": 42106.82769625638,
      "eccentricity": 0.0005797,
      "inclination_deg": 3.5116,
      "raan_deg": 79.3148,
      "arg_perigee_deg": 264.3979,
      "mean_anomaly_deg": 269.2247,
      "mean_motion_rev_day": 1.00478693
    }
  ]
}